NORAD_CAT_ID,OBJECT_NAME,OBJECT_TYPE,EPOCH,MEAN_MOTION,ECCENTRICITY,INCLINATION,RA_OF_ASC_NODE,ARG_OF_PERICENTER,MEAN_ANOMALY,BSTAR,MEAN_MOTION_DOT,MEAN_MOTION_DDOT,TLE_LINE0,TLE_LINE1,TLE_LINE2,SEMIMAJOR_AXIS,PERIOD,APOGEE,PERIGEE,DECAYED
53416.0,STARLINK-4480,PAYLOAD,2023-10-27 12:12:15,15.08860121,0.0001447,53.22,33.5357,93.366,266.7498,-7.9168e-05,-1.548e-05,0.0,0 STARLINK-4480,1 53416U 22097AE  23300.50851430 -.00001548  00000-0 -79168-4 0  9998,2 53416  53.2200  33.5357 0001447  93.3660 266.7498 15.08860121 67706,6917.819,95.436,540.685,538.683,0.0
53416.0,STARLINK-4480,PAYLOAD,2023-10-27 15:23:01,15.08853623,0.000166,53.2198,32.94,91.5538,268.5645,0.00015472,2.176e-05,0.0,0 STARLINK-4480,1 53416U 22097AE  23300.64099163  .00002176  00000-0  15472-3 0  9993,2 53416  53.2198  32.9400 0001660  91.5538 268.5645 15.08853623 68181,6917.839,95.437,540.852,538.555,0.0
53416.0,STARLINK-4480,PAYLOAD,2023-10-27 23:19:58,15.08841584,0.000193,53.22,31.4541,79.6129,280.508,5.6626e-05,6.13e-06,0.0,0 STARLINK-4480,1 53416U 22097AE  23300.97220247  .00000613  00000-0  56626-4 0  9999,2 53416  53.2200  31.4541 0001930  79.6129 280.5080 15.08841584 67772,6917.876,95.437,541.076,538.405,0.0
53416.0,STARLINK-4480,PAYLOAD,2023-10-28 12:03:04,15.08829097,0.0001349,53.2182,29.0726,79.3925,280.7219,-0.00011314,-2.088e-05,0.0,0 STARLINK-4480,1 53416U 22097AE  23301.50213624 -.00002088  00000-0 -11314-3 0  9994,2 53416  53.2182  29.0726 0001349  79.3925 280.7219 15.08829097 67854,6917.914,95.438,540.712,538.845,0.0
53416.0,STARLINK-4480,PAYLOAD,2023-10-28 13:38:27,15.08833088,0.0001369,53.2184,28.7748,79.6505,280.4641,-8.7239e-05,-1.676e-05,0.0,0 STARLINK-4480,1 53416U 22097AE  23301.56837337 -.00001676  00000-0 -87239-4 0  9995,2 53416  53.2184  28.7748 0001369  79.6505 280.4641 15.08833088 68329,6917.902,95.438,540.714,538.819,0.0
53416.0,STARLINK-4480,PAYLOAD,2023-10-28 18:24:36,15.08843793,0.0001575,53.2193,27.8824,84.2962,275.821,-5.017e-05,-1.086e-05,0.0,0 STARLINK-4480,1 53416U 22097AE  23301.76708641 -.00001086  00000-0 -50170-4 0  9991,2 53416  53.2193  27.8824 0001575  84.2962 275.8210 15.08843793 67897,6917.869,95.437,540.823,538.644,0.0
53416.0,STARLINK-4480,PAYLOAD,2023-10-29 11:53:49,15.08860651,0.0001381,53.218,24.6128,97.8632,262.2517,0.00030108,4.51e-05,0.0,0 STARLINK-4480,1 53416U 22097AE  23302.49571162  .00004510  00000-0  30108-3 0  9999,2 53416  53.2180  24.6128 0001381  97.8632 262.2517 15.08860651 68000,6917.817,95.436,540.638,538.727,0.0
53416.0,STARLINK-4480,PAYLOAD,2023-10-30 05:23:05,15.08822548,0.0001565,53.2177,21.3427,82.6066,277.5103,5.9008e-05,6.51e-06,0.0,0 STARLINK-4480,1 53416U 22097AE  23303.22437152  .00000651  00000-0  59008-4 0  9994,2 53416  53.2177  21.3427 0001565  82.6066 277.5103 15.08822548 68114,6917.934,95.439,540.881,538.716,0.0
53416.0,STARLINK-4480,PAYLOAD,2023-10-30 11:44:38,15.08829448,0.0001508,53.2191,20.1516,82.181,277.9353,7.4632e-05,9e-06,0.0,0 STARLINK-4480,1 53416U 22097AE  23303.48933054  .00000900  00000-0  74632-4 0  9991,2 53416  53.2191  20.1516 0001508  82.1810 277.9353 15.08829448 68617,6917.913,95.438,540.821,538.734,0.0
53416.0,STARLINK-4480,PAYLOAD,2023-10-31 09:59:52,15.09045178,0.0004777,53.2208,15.9889,153.7286,206.3949,0.0031171,0.00049962,0.0,0 STARLINK-4480,1 53416U 22097AE  23304.41658447  .00049962  00000-0  31171-2 0  9995,2 53416  53.2208  15.9889 0004777 153.7286 206.3949 15.09045178 68296,6917.253,95.425,542.423,535.814,0.0
53416.0,STARLINK-4480,PAYLOAD,2023-11-01 11:26:10,15.08875347,0.0001459,53.219,11.2317,116.3858,243.7284,0.00048699,7.478e-05,0.0,0 STARLINK-4480,1 53416U 22097AE  23305.47651425  .00007478  00000-0  48699-3 0  9991,2 53416  53.2190  11.2317 0001459 116.3858 243.7284 15.08875347 68458,6917.772,95.435,540.647,538.628,0.0
53416.0,STARLINK-4480,PAYLOAD,2023-11-01 14:36:58,15.08849031,0.0001432,53.2182,10.6368,103.5907,256.5244,0.00034308,5.178e-05,0.0,0 STARLINK-4480,1 53416U 22097AE  23305.60900766  .00005178  00000-0  34308-3 0  9998,2 53416  53.2182  10.6368 0001432 103.5907 256.5244 15.08849031 68934,6917.853,95.437,540.708,538.727,0.0
53416.0,STARLINK-4480,PAYLOAD,2023-11-01 20:58:31,15.08833131,0.0001519,53.2184,9.448,99.0903,261.0261,5.9747e-05,6.63e-06,0.0,0 STARLINK-4480,1 53416U 22097AE  23305.87397618  .00000663  00000-0  59747-4 0  9992,2 53416  53.2184   9.4480 0001519  99.0903 261.0261 15.08833131 68516,6917.901,95.438,540.817,538.716,0.0
53416.0,STARLINK-4480,PAYLOAD,2023-11-02 04:55:26,15.08844978,0.0001873,53.2182,7.9615,95.9971,264.1235,-0.0002729,-4.629e-05,0.0,0 STARLINK-4480,1 53416U 22097AE  23306.20517187 -.00004629  00000-0 -27290-3 0  9990,2 53416  53.2182   7.9615 0001873  95.9971 264.1235 15.08844978 68561,6917.865,95.437,541.026,538.434,0.0
53416.0,STARLINK-4480,PAYLOAD,2023-11-02 11:16:58,15.08848704,0.0001307,53.2181,6.7718,98.8632,261.2509,0.00022794,3.342e-05,0.0,0 STARLINK-4480,1 53416U 22097AE  23306.47012731  .00003342  00000-0  22794-3 0  9997,2 53416  53.2181   6.7718 0001307  98.8632 261.2509 15.08848704 69068,6917.854,95.437,540.623,538.815,0.0
53416.0,STARLINK-4480,PAYLOAD,2023-11-02 20:49:17,15.0885393,9.3e-05,53.2181,4.9874,86.0426,274.0673,-3.1631e-05,-7.91e-06,0.0,0 STARLINK-4480,1 53416U 22097AE  23306.86756177 -.00000791  00000-0 -31631-4 0  9997,2 53416  53.2181   4.9874 0000930  86.0426 274.0673 15.08853930 68668,6917.838,95.437,540.346,539.059,0.0
53416.0,STARLINK-4480,PAYLOAD,2023-11-03 03:10:50,15.08843454,0.0001133,53.2185,3.8021,83.0644,277.0477,-0.00012268,-2.24e-05,0.0,0 STARLINK-4480,1 53416U 22097AE  23307.13252970 -.00002240  00000-0 -12268-3 0  9995,2 53416  53.2185   3.8021 0001133  83.0644 277.0477 15.08843454 68709,6917.87,95.437,540.519,538.951,0.0
53416.0,STARLINK-4480,PAYLOAD,2023-11-03 11:07:46,15.08836947,0.0001296,53.2188,2.3135,84.2165,275.8975,1.1061e-05,-1.12e-06,0.0,0 STARLINK-4480,1 53416U 22097AE  23307.46373808 -.00000112  00000-0  11061-4 0  9991,2 53416  53.2188   2.3135 0001296  84.2165 275.8975 15.08836947 68756,6917.89,95.438,540.651,538.858,0.0
53416.0,STARLINK-4480,PAYLOAD,2023-11-03 20:40:05,15.08835329,0.0001313,53.2185,0.5289,92.9407,267.1735,7.0153e-05,8.29e-06,0.0,0 STARLINK-4480,1 53416U 22097AE  23307.86117838  .00000829  00000-0  70153-4 0  9995,2 53416  53.2185   0.5289 0001313  92.9407 267.1735 15.08835329 69277,6917.895,95.438,540.668,538.851,0.0
53416.0,STARLINK-4480,PAYLOAD,2023-11-04 10:58:33,15.08844507,0.0001395,53.2185,357.8531,92.3774,267.7378,6.5887e-05,7.61e-06,0.0,0 STARLINK-4480,1 53416U 22097AE  23308.45733438  .00000761  00000-0  65887-4 0  9994,2 53416  53.2185 357.8531 0001395  92.3774 267.7378 15.08844507 69363,6917.867,95.437,540.697,538.767,0.0
53416.0,STARLINK-4480,PAYLOAD,2023-11-05 10:49:20,15.08852433,0.0001846,53.2189,353.3938,71.1859,288.9333,0.00032814,4.94e-05,0.0,0 STARLINK-4480,1 53416U 22097AE  23309.45093169  .00004940  00000-0  32814-3 0  9991,2 53416  53.2189 353.3938 0001846  71.1859 288.9333 15.08852433 69519,6917.842,95.437,540.984,538.43,0.0
53416.0,STARLINK-4480,PAYLOAD,2023-11-05 20:21:39,15.08851906,0.0001772,53.2195,351.6063,78.3036,281.8155,0.00012821,1.754e-05,0.0,0 STARLINK-4480,1 53416U 22097AE  23309.84836971  .00001754  00000-0  12821-3 0  9996,2 53416  53.2195 351.6063 0001772  78.3036 281.8155 15.08851906 69574,6917.844,95.437,540.935,538.483,0.0
53416.0,STARLINK-4480,PAYLOAD,2023-11-06 09:04:43,15.08865682,0.0001863,53.218,349.2284,83.2438,276.8766,0.00041856,6.384e-05,0.0,0 STARLINK-4480,1 53416U 22097AE  23310.37828131  .00006384  00000-0  41856-3 0  9999,2 53416  53.2180 349.2284 0001863  83.2438 276.8766 15.08865682 69194,6917.802,95.436,540.956,538.378,0.0
53416.0,STARLINK-4480,PAYLOAD,2023-11-06 12:15:30,15.08846855,0.0001972,53.2178,348.6349,74.5598,285.5611,5.6633e-05,6.13e-06,0.0,0 STARLINK-4480,1 53416U 22097AE  23310.51076814  .00000613  00000-0  56633-4 0  9997,2 53416  53.2178 348.6349 0001972  74.5598 285.5611 15.08846855 69677,6917.859,95.437,541.089,538.36,0.0
53416.0,STARLINK-4480,PAYLOAD,2023-11-06 20:12:28,15.08782805,0.0002042,53.2184,347.1494,69.8072,290.314,-0.0010323,-0.00016654,0.0,0 STARLINK-4480,1 53416U 22097AE  23310.84200046 -.00016654  00000-0 -10323-2 0  9997,2 53416  53.2184 347.1494 0002042  69.8072 290.3140 15.08782805 69723,6918.055,95.441,541.333,538.508,0.0
53416.0,STARLINK-4480,PAYLOAD,2023-11-07 02:34:02,15.08778916,0.0001526,53.2187,345.9575,77.441,282.6753,-0.001034,-0.00016679,0.0,0 STARLINK-4480,1 53416U 22097AE  23311.10696843 -.00016679  00000-0 -10340-2 0  9997,2 53416  53.2187 345.9575 0001526  77.4410 282.6753 15.08778916 69305,6918.067,95.441,540.988,538.876,0.0
53416.0,STARLINK-4480,PAYLOAD,2023-11-07 08:55:33,15.0882308,0.0001494,53.2181,344.7673,87.0284,273.0879,0.00019935,2.885e-05,0.0,0 STARLINK-4480,1 53416U 22097AE  23311.37191782  .00002885  00000-0  19935-3 0  9990,2 53416  53.2181 344.7673 0001494  87.0284 273.0879 15.08823080 69345,6917.932,95.439,540.831,538.764,0.0
53416.0,STARLINK-4480,PAYLOAD,2023-11-08 11:57:06,15.08861912,0.0001467,53.2173,339.7098,93.7057,266.4103,0.00086632,0.00013535,0.0,0 STARLINK-4480,1 53416U 22097AE  23312.49799130  .00013535  00000-0  86632-3 0  9997,2 53416  53.2173 339.7098 0001467  93.7057 266.4103 15.08861912 69514,6917.813,95.436,540.693,538.664,0.0
53416.0,STARLINK-4480,PAYLOAD,2023-11-09 02:15:34,15.08850507,0.0001204,53.2178,337.0368,97.7834,262.3294,-5.2839e-05,-1.129e-05,0.0,0 STARLINK-4480,1 53416U 22097AE  23313.09415255 -.00001129  00000-0 -52839-4 0  9998,2 53416  53.2178 337.0368 0001204  97.7834 262.3294 15.08850507 69600,6917.848,95.437,540.546,538.88,0.0
53416.0,STARLINK-4480,PAYLOAD,2023-11-09 08:37:07,15.08859067,0.0001834,53.2178,335.8456,112.5934,247.5253,0.00025037,3.701e-05,0.0,0 STARLINK-4480,1 53416U 22097AE  23313.35910908  .00003701  00000-0  25037-3 0  9997,2 53416  53.2178 335.8456 0001834 112.5934 247.5253 15.08859067 69644,6917.822,95.436,540.956,538.418,0.0
